start=new Date('2021-12-16T00:00:00.000Z').valueOf();
sats=[{"REV_AT_EPOCH":"10383","TLE_LINE2":"2 45066  53.0562   3.4521 0001605  58.3267 301.7879 15.06400189103836","ELEMENT_SET_NO":"999","OBJECT_ID":"2020-006Y","MEAN_MOTION":"15.06400189","MEAN_ANOMALY":"301.7879","TLE_LINE1":"1 45066U 20006Y   21349.45598807  .00001247  00000-0  10259-3 0  9998","APOAPSIS":"548.324","PERIAPSIS":"546.101","RA_OF_ASC_NODE":"3.4521","TIME_SYSTEM":"UTC","ARG_OF_PERICENTER":"58.3267","DECAY_DATE":null,"ECCENTRICITY":"0.00016050","MEAN_ELEMENT_THEORY":"SGP4","MEAN_MOTION_DDOT":"0.0000000000000","SITE":"AFETR","SEMIMAJOR_AXIS":"6925.348","NORAD_CAT_ID":"45066","PERIOD":"95.592","MEAN_MOTION_DOT":"0.00001247","OBJECT_NAME":"STARLINK-1145","INCLINATION":"53.0562","CLASSIFICATION_TYPE":"U","EPHEMERIS_TYPE":"0","REF_FRAME":"TEME","CENTER_NAME":"EARTH","COUNTRY_CODE":"US","FILE":"3241011","BSTAR":"0.00010259000000","EPOCH":"2021-12-15T10:56:37.369248","LAUNCH_DATE":"2020-01-29","OBJECT_TYPE":"PAYLOAD","RCS_SIZE":"LARGE","GP_ID":"191762518"},{"ARG_OF_PERICENTER":"56.7864","MEAN_ELEMENT_THEORY":"SGP4","ECCENTRICITY":"0.00016710","DECAY_DATE":null,"MEAN_MOTION_DDOT":"0.0000000000000","SEMIMAJOR_AXIS":"6925.373","SITE":"AFETR","REV_AT_EPOCH":"10388","ELEMENT_SET_NO":"999","TLE_LINE2":"2 45067  53.0550   2.1786 0001671  56.7864 303.3285 15.06392038103888","OBJECT_ID":"2020-006Z","MEAN_ANOMALY":"303.3285","TLE_LINE1":"1 45067U 20006Z   21349.73612750 -.00000082  00000-0  13385-4 0  9995","MEAN_MOTION":"15.06392038","APOAPSIS":"548.395","PERIAPSIS":"546.081","RA_OF_ASC_NODE":"2.1786","TIME_SYSTEM":"UTC","FILE":"3241542","BSTAR":"0.00001338500000","COUNTRY_CODE":"US","LAUNCH_DATE":"2020-01-29","EPOCH":"2021-12-15T17:40:01.416000","RCS_SIZE":"LARGE","OBJECT_TYPE":"PAYLOAD","GP_ID":"191796349","OBJECT_NAME":"STARLINK-1150","NORAD_CAT_ID":"45067","PERIOD":"95.593","MEAN_MOTION_DOT":"-0.00000082","INCLINATION":"53.0550","CLASSIFICATION_TYPE":"U","EPHEMERIS_TYPE":"0","REF_FRAME":"TEME","CENTER_NAME":"EARTH"},{"GP_ID":"191762017","OBJECT_TYPE":"PAYLOAD","RCS_SIZE":"LARGE","BSTAR":"0.00004280000000","FILE":"3241011","COUNTRY_CODE":"US","EPOCH":"2021-12-15T11:01:57.209952","LAUNCH_DATE":"2020-01-29","CENTER_NAME":"EARTH","REF_FRAME":"TEME","CLASSIFICATION_TYPE":"U","EPHEMERIS_TYPE":"0","PERIOD":"95.593","NORAD_CAT_ID":"45068","MEAN_MOTION_DOT":"0.00000356","OBJECT_NAME":"STARLINK-1161","INCLINATION":"53.0558","SEMIMAJOR_AXIS":"6925.380","SITE":"AFETR","ECCENTRICITY":"0.00014050","DECAY_DATE":null,"MEAN_ELEMENT_THEORY":"SGP4","MEAN_MOTION_DDOT":"0.0000000000000","ARG_OF_PERICENTER":"73.1808","PERIAPSIS":"546.272","TIME_SYSTEM":"UTC","RA_OF_ASC_NODE":"3.4381","MEAN_MOTION":"15.06389654","MEAN_ANOMALY":"286.9335","TLE_LINE1":"1 45068U 20006AA  21349.45968993  .00000356  00000-0  42800-4 0  9995","APOAPSIS":"548.218","TLE_LINE2":"2 45068  53.0558   3.4381 0001405  73.1808 286.9335 15.06389654103835","ELEMENT_SET_NO":"999","OBJECT_ID":"2020-006AA","REV_AT_EPOCH":"10383"},{"SEMIMAJOR_AXIS":"6925.331","SITE":"AFETR","MEAN_MOTION_DDOT":"0.0000000000000","MEAN_ELEMENT_THEORY":"SGP4","DECAY_DATE":null,"ECCENTRICITY":"0.00015880","ARG_OF_PERICENTER":"65.3438","RA_OF_ASC_NODE":"3.5316","TIME_SYSTEM":"UTC","PERIAPSIS":"546.096","APOAPSIS":"548.296","MEAN_ANOMALY":"294.7717","TLE_LINE1":"1 45071U 20006AD  21349.43755061  .00000104  00000-0  25852-4 0  9996","MEAN_MOTION":"15.06405753","OBJECT_ID":"2020-006AD","ELEMENT_SET_NO":"999","TLE_LINE2":"2 45071  53.0562   3.5316 0001588  65.3438 294.7717 15.06405753103837","REV_AT_EPOCH":"10383","GP_ID":"191762268","RCS_SIZE":"LARGE","OBJECT_TYPE":"PAYLOAD","LAUNCH_DATE":"2020-01-29","EPOCH":"2021-12-15T10:30:04.372704","FILE":"3241011","COUNTRY_CODE":"US","BSTAR":"0.00002585200000","CENTER_NAME":"EARTH","REF_FRAME":"TEME","EPHEMERIS_TYPE":"0","CLASSIFICATION_TYPE":"U","INCLINATION":"53.0562","OBJECT_NAME":"STARLINK-1167","NORAD_CAT_ID":"45071","PERIOD":"95.592","MEAN_MOTION_DOT":"0.00000104"},{"OBJECT_ID":"2020-006AE","ELEMENT_SET_NO":"999","TLE_LINE2":"2 45072  53.0543   4.1029 0001844  66.5846 293.5337 15.06396036103812","REV_AT_EPOCH":"10381","TIME_SYSTEM":"UTC","RA_OF_ASC_NODE":"4.1029","PERIAPSIS":"545.949","APOAPSIS":"548.503","MEAN_MOTION":"15.06396036","TLE_LINE1":"1 45072U 20006AE  21349.30855832  .00001668  00000-0  13086-3 0  9991","MEAN_ANOMALY":"293.5337","MEAN_MOTION_DDOT":"0.0000000000000","ECCENTRICITY":"0.00018440","DECAY_DATE":null,"MEAN_ELEMENT_THEORY":"SGP4","ARG_OF_PERICENTER":"66.5846","SEMIMAJOR_AXIS":"6925.361","SITE":"AFETR","EPHEMERIS_TYPE":"0","CLASSIFICATION_TYPE":"U","INCLINATION":"53.0543","NORAD_CAT_ID":"45072","PERIOD":"95.592","MEAN_MOTION_DOT":"0.00001668","OBJECT_NAME":"STARLINK-1168","CENTER_NAME":"EARTH","REF_FRAME":"TEME","OBJECT_TYPE":"PAYLOAD","RCS_SIZE":"LARGE","EPOCH":"2021-12-15T07:24:19.438848","LAUNCH_DATE":"2020-01-29","BSTAR":"0.00013086000000","FILE":"3241011","COUNTRY_CODE":"US","GP_ID":"191763019"},{"REF_FRAME":"TEME","CENTER_NAME":"EARTH","INCLINATION":"53.0554","OBJECT_NAME":"STARLINK-1170","NORAD_CAT_ID":"45073","PERIOD":"95.592","MEAN_MOTION_DOT":"-0.00000148","EPHEMERIS_TYPE":"0","CLASSIFICATION_TYPE":"U","GP_ID":"191795850","LAUNCH_DATE":"2020-01-29","EPOCH":"2021-12-15T17:34:42.844512","BSTAR":"0.00000896280000","FILE":"3241542","COUNTRY_CODE":"US","RCS_SIZE":"LARGE","OBJECT_TYPE":"PAYLOAD","APOAPSIS":"548.254","TLE_LINE1":"1 45073U 20006AF  21349.73244033 -.00000148  00000-0  89628-5 0  9994","MEAN_ANOMALY":"301.4206","MEAN_MOTION":"15.06399763","RA_OF_ASC_NODE":"2.1965","TIME_SYSTEM":"UTC","PERIAPSIS":"546.174","REV_AT_EPOCH":"10387","OBJECT_ID":"2020-006AF","TLE_LINE2":"2 45073  53.0554   2.1965 0001502  58.6930 301.4206 15.06399763103879","ELEMENT_SET_NO":"999","SITE":"AFETR","SEMIMAJOR_AXIS":"6925.349","ARG_OF_PERICENTER":"58.6930","MEAN_MOTION_DDOT":"0.0000000000000","MEAN_ELEMENT_THEORY":"SGP4","DECAY_DATE":null,"ECCENTRICITY":"0.00015020"},{"SEMIMAJOR_AXIS":"6925.376","SITE":"AFETR","MEAN_MOTION_DDOT":"0.0000000000000","ECCENTRICITY":"0.00018620","DECAY_DATE":null,"MEAN_ELEMENT_THEORY":"SGP4","ARG_OF_PERICENTER":"57.6578","RA_OF_ASC_NODE":"4.0675","TIME_SYSTEM":"UTC","PERIAPSIS":"545.952","APOAPSIS":"548.531","MEAN_MOTION":"15.06390994","MEAN_ANOMALY":"302.4591","TLE_LINE1":"1 45074U 20006AG  21349.31961017  .00001199  00000-0  99385-4 0  9993","OBJECT_ID":"2020-006AG","TLE_LINE2":"2 45074  53.0563   4.0675 0001862  57.6578 302.4591 15.06390994103814","ELEMENT_SET_NO":"999","REV_AT_EPOCH":"10381","GP_ID":"191761517","OBJECT_TYPE":"PAYLOAD","RCS_SIZE":"LARGE","EPOCH":"2021-12-15T07:40:14.318688","LAUNCH_DATE":"2020-01-29","BSTAR":"0.00009938500000","FILE":"3241011","COUNTRY_CODE":"US","CENTER_NAME":"EARTH","REF_FRAME":"TEME","EPHEMERIS_TYPE":"0","CLASSIFICATION_TYPE":"U","INCLINATION":"53.0563","MEAN_MOTION_DOT":"0.00001199","PERIOD":"95.593","NORAD_CAT_ID":"45074","OBJECT_NAME":"STARLINK-1172"},{"MEAN_MOTION":"15.06391658","TLE_LINE1":"1 45075U 20006AH  21349.75086842 -.00000614  00000-0 -22321-4 0  9995","MEAN_ANOMALY":"298.5244","APOAPSIS":"548.503","PERIAPSIS":"545.975","TIME_SYSTEM":"UTC","RA_OF_ASC_NODE":"2.1313","REV_AT_EPOCH":"10388","ELEMENT_SET_NO":"999","TLE_LINE2":"2 45075  53.0544   2.1313 0001825  61.5928 298.5244 15.06391658103889","OBJECT_ID":"2020-006AH","SITE":"AFETR","SEMIMAJOR_AXIS":"6925.374","ARG_OF_PERICENTER":"61.5928","ECCENTRICITY":"0.00018250","DECAY_DATE":null,"MEAN_ELEMENT_THEORY":"SGP4","MEAN_MOTION_DDOT":"0.0000000000000","REF_FRAME":"TEME","CENTER_NAME":"EARTH","NORAD_CAT_ID":"45075","PERIOD":"95.593","MEAN_MOTION_DOT":"-0.00000614","OBJECT_NAME":"STARLINK-1174","INCLINATION":"53.0544","CLASSIFICATION_TYPE":"U","EPHEMERIS_TYPE":"0","GP_ID":"191796852","BSTAR":"-0.00002232100000","FILE":"3241542","COUNTRY_CODE":"US","EPOCH":"2021-12-15T18:01:15.031488","LAUNCH_DATE":"2020-01-29","OBJECT_TYPE":"PAYLOAD","RCS_SIZE":"LARGE"},{"RCS_SIZE":"LARGE","OBJECT_TYPE":"PAYLOAD","BSTAR":"-0.00002661900000","FILE":"3241542","COUNTRY_CODE":"US","LAUNCH_DATE":"2020-01-29","EPOCH":"2021-12-15T18:11:51.933408","GP_ID":"191796100","CLASSIFICATION_TYPE":"U","EPHEMERIS_TYPE":"0","OBJECT_NAME":"STARLINK-1180","MEAN_MOTION_DOT":"-0.00000678","PERIOD":"95.593","NORAD_CAT_ID":"45076","INCLINATION":"53.0558","CENTER_NAME":"EARTH","REF_FRAME":"TEME","MEAN_ELEMENT_THEORY":"SGP4","DECAY_DATE":null,"ECCENTRICITY":"0.00015560","MEAN_MOTION_DDOT":"0.0000000000000","ARG_OF_PERICENTER":"54.2171","SEMIMAJOR_AXIS":"6925.376","SITE":"AFETR","ELEMENT_SET_NO":"999","TLE_LINE2":"2 45076  53.0558   2.0854 0001556  54.2171 305.8963 15.06391007103882","OBJECT_ID":"2020-006AJ","REV_AT_EPOCH":"10388","PERIAPSIS":"546.164","TIME_SYSTEM":"UTC","RA_OF_ASC_NODE":"2.0854","TLE_LINE1":"1 45076U 20006AJ  21349.75823997 -.00000678  00000-0 -26619-4 0  9990","MEAN_ANOMALY":"305.8963","MEAN_MOTION":"15.06391007","APOAPSIS":"548.319"},{"EPHEMERIS_TYPE":"0","CLASSIFICATION_TYPE":"U","INCLINATION":"53.0549","OBJECT_NAME":"STARLINK-1182","NORAD_CAT_ID":"45077","PERIOD":"92.849","MEAN_MOTION_DOT":"0.00714342","CENTER_NAME":"EARTH","REF_FRAME":"TEME","RCS_SIZE":"LARGE","OBJECT_TYPE":"PAYLOAD","LAUNCH_DATE":"2020-01-29","EPOCH":"2021-12-15T22:13:30.218016","BSTAR":"0.01123400000000","FILE":"3241542","COUNTRY_CODE":"US","GP_ID":"191796350","OBJECT_ID":"2020-006AK","TLE_LINE2":"2 45077  53.0549 328.3732 0004608  71.1672 288.9836 15.50905123104371","ELEMENT_SET_NO":"999","REV_AT_EPOCH":"10437","TIME_SYSTEM":"UTC","RA_OF_ASC_NODE":"328.3732","PERIAPSIS":"410.954","APOAPSIS":"417.214","TLE_LINE1":"1 45077U 20006AK  21349.92604419  .00714342  00000-0  11234-1 0  9998","MEAN_ANOMALY":"288.9836","MEAN_MOTION":"15.50905123","MEAN_MOTION_DDOT":"0.0000000000000","MEAN_ELEMENT_THEORY":"SGP4","ECCENTRICITY":"0.00046080","DECAY_DATE":null,"ARG_OF_PERICENTER":"71.1672","SEMIMAJOR_AXIS":"6792.219","SITE":"AFETR"}];
